{{Infobox Planet  
| name = 345 Tercidina
| image = 
| caption = 
| discovery=yes | physical_characteristics = yes | bgcolour=#FFFFC0
| discovery_ref = 
| discoverer = [[奥古斯特·沙卢瓦|奥古斯特·沙卢瓦]]
| discovery_site = [[尼斯|尼斯]]
| discovered =  1892年11月23日
| mp_name = 345
| alt_names = 1892 0
| named_after = 
| mp_category=[[小行星带|主带小行星]]
| orbit_ref = <ref>[http://ssd.jpl.nasa.gov/sbdb.cgi?sstr=345 345 Tercidina]</ref>
| epoch = 2011年8月27日
| semimajor= 2.325597626047511AU
| perihelion=2.184104936274353AU
| aphelion=2.46709031582067[[天文单位|AU]]
| eccentricity =0.06084143197791007
| period =1295.389254050914[[日|地球日]]<br>3.55[[年|地球年]] 
| inclination=9.750152650291714[[角度|°]]
| asc_node=212.6885526913117°	
| arg_peri=230.9432302749182°
| mean_anomaly=147.6374218433337°
| avg_speed=19.53 km/s
 | dimensions=	94.12千米
 | mass=
 | density=
 | surface_grav=
 | escape_velocity=
 | rotation=12.371[[小时|小时]]
 | spectral_type=[[C-型小行星|C]]
 | magnitude=
 | abs_magnitude=8.71
 | albedo=0.0654
 | single_temperature=
}}
'''小行星345'''（'''345 Tercidina'''），是由[[法国|法国]][[天文学家|天文学家]][[奥古斯特·沙卢瓦|奥古斯特·沙卢瓦]]于1892年11月23日在法国[[尼斯|尼斯]]发现的[[小行星带|主带]][[小行星|小行星]]。

小行星345的命名依据不明。

== 参考资料 ==
{{Reflist}}

{{Minor Planet Number|(344)[[小行星344|小行星344]]|(346)[[小行星346|小行星346]]}}

[[Category:小行星带天体|Category:小行星带天体]]
[[Category:1892年发现的小行星|Category:1892年发现的小行星]]
[[Category:C-型小行星|Category:C-型小行星]]